HAWK-12A                
1 64623U 25138C   26190.84552922  .00002820  00000+0  14009-3 0  9993
2 64623  97.4413 193.2478 0015465  63.2529 297.0286 15.18380966 57309
HAWK-13A                
1 67392U 26004AF  26191.44472921  .00002654  00000+0  12885-3 0  9994
2 67392  97.4443 189.9847 0003784 241.4342 118.6512 15.19334913 27291
HAWK-13C                
1 67393U 26004AG  26191.44457933  .00002771  00000+0  13441-3 0  9990
2 67393  97.4590 190.3995 0003650 246.1019 113.9833 15.19334836 27298
HAWK-13B                
1 67396U 26004AK  26191.97137078  .00002461  00000+0  11969-3 0  9995
2 67396  97.4529 190.7465 0004963 243.5184 116.5542 15.19336037 27371
HAWK-14B                
1 68436U 26067W   26191.34781617  .00002810  00000+0  13992-3 0  9991
2 68436  97.4553 149.4671 0002089  14.3097 345.8196 15.18407784 15453
HAWK-14C                
1 68441U 26067AB  26191.34791650  .00002876  00000+0  14311-3 0  9993
2 68441  97.4491 149.3512 0003102  36.7355 323.4092 15.18410381 15459
HAWK-14A                
1 68448U 26067AJ  26191.34804411  .00003037  00000+0  15091-3 0  9996
2 68448  97.4616 149.5897 0003794  28.4291 331.7149 15.18408789 15451
